     2.100          NAVIGATION                              RINEX VERSION / TYPE
fic2rin                                 11/11/2014 03:29:30 PGM / RUN BY / DATE
                                                            END OF HEADER
21 14 11 10 12  0  0.0 -.394105445594D-03 -.204636307899D-11  .000000000000D+00
     .430000000000D+02  .219375000000D+02  .550522931490D-08 -.894292694263D+00
     .140815973282D-05  .217299115611D-01  .682100653648D-05  .515366075516D+04
     .129600000000D+06 -.894069671631D-07  .156464856132D+01  .456348061562D-06
     .932546869737D+00  .234281250000D+03 -.197986926100D+01 -.871393439892D-08
     .247153152064D-09  .100000000000D+01  .181800000000D+04  .000000000000D+00
     .240000000000D+01  .000000000000D+00 -.116415321827D-07  .430000000000D+02
     .122406000000D+06  .400000000000D+01
22 14 11 10 12  0  0.0  .285595655441D-03  .386535248253D-11  .000000000000D+00
     .460000000000D+02 -.188125000000D+02  .549665752928D-08 -.238301729506D+01
    -.101327896118D-05  .731397815980D-02  .667199492455D-05  .515371298409D+04
     .129600000000D+06  .707805156708D-07  .261073511596D+01 -.577419996262D-07
     .923342170165D+00  .230781250000D+03 -.205958563915D+01 -.834249035535D-08
    -.373586989969D-09  .100000000000D+01  .181800000000D+04  .000000000000D+00
     .340000000000D+01  .000000000000D+00 -.176951289177D-07  .460000000000D+02
     .122406000000D+06  .400000000000D+01
23 14 11 10 12  0  0.0 -.662738457322D-04 -.284217094304D-11  .000000000000D+00
     .140000000000D+02  .720312500000D+02  .447804367135D-08  .164587056452D+01
     .385008752346D-05  .968990358524D-02  .104662030935D-04  .515371542740D+04
     .129600000000D+06 -.104308128357D-06 -.260575546717D+01  .109896063805D-06
     .950527167215D+00  .174906250000D+03 -.272089873850D+01 -.797640367780D-08
    -.276440086268D-09  .100000000000D+01  .181800000000D+04  .000000000000D+00
     .240000000000D+01  .000000000000D+00 -.200234353542D-07  .140000000000D+02
     .122406000000D+06  .400000000000D+01
24 14 11 10 12  0  0.0 -.382284633815D-04 -.568434188608D-12  .000000000000D+00
     .120000000000D+02  .904062500000D+02  .472269671927D-08  .104885169071D+01
     .459142029285D-05  .247106188908D-02  .382959842682D-05  .515370526314D+04
     .129600000000D+06  .204890966415D-07 -.157851253502D+01 -.745058059692D-08
     .955140148758D+00  .302156250000D+03  .206106698268D+00 -.842892252703D-08
     .223223583873D-09  .100000000000D+01  .181800000000D+04  .000000000000D+00
     .240000000000D+01  .000000000000D+00  .279396772385D-08  .120000000000D+02
     .122406000000D+06  .400000000000D+01
25 14 11 10 12  0  0.0  .148890540004D-04 -.170530256582D-11  .000000000000D+00
     .920000000000D+02 -.797812500000D+02  .436482466961D-08 -.103257251095D+01
    -.412575900555D-05  .377526890952D-02  .390782952309D-05  .515376909447D+04
     .129600000000D+06  .121071934700D-06 -.519621944957D+00  .875443220139D-07
     .977500291302D+00  .313937500000D+03  .701946787153D+00 -.817641200895D-08
    -.151792037033D-09  .100000000000D+01  .181800000000D+04  .000000000000D+00
     .240000000000D+01  .000000000000D+00  .512227416039D-08  .920000000000D+02
     .122406000000D+06  .400000000000D+01
26 14 11 10 12  0  0.0 -.118149444461D-03 -.129602995003D-10  .000000000000D+00
     .800000000000D+02  .817812500000D+02  .395766485263D-08  .164207297255D+01
     .394135713577D-05  .213013056200D-01  .112559646368D-04  .515369094467D+04
     .129600000000D+06 -.219792127609D-06 -.251374329767D+01 -.527128577232D-06
     .973595563992D+00  .168812500000D+03  .129742452212D+01 -.777032366517D-08
    -.917895376884D-10  .100000000000D+01  .181800000000D+04  .000000000000D+00
     .240000000000D+01  .000000000000D+00 -.651925802231D-08  .800000000000D+02
     .122406000000D+06  .400000000000D+01
27 14 11 10 12  0  0.0  .288095325232D-04  .284217094304D-11  .000000000000D+00
     .430000000000D+02 -.585937500000D+02  .427553523606D-08  .282019377063D+01
    -.300817191601D-05  .157872331329D-02  .103674829006D-04  .515368657494D+04
     .129600000000D+06 -.353902578354D-07  .525688654528D+00 -.931322574615D-08
     .965342595034D+00  .181656250000D+03  .289773653047D+00 -.777139513837D-08
     .219294848796D-09  .100000000000D+01  .181800000000D+04  .000000000000D+00
     .240000000000D+01  .000000000000D+00  .139698386192D-08  .430000000000D+02
     .122406000000D+06  .400000000000D+01
28 14 11 10 12  0  0.0  .397382304072D-03  .261479726760D-11  .000000000000D+00
     .560000000000D+02 -.109125000000D+03  .390980571624D-08 -.256318845266D+01
    -.555440783501D-05  .195639496669D-01  .416859984398D-05  .515368672371D+04
     .129600000000D+06  .225380063057D-06 -.451096250815D+00  .141561031342D-06
     .988058070139D+00  .306000000000D+03 -.170169816631D+01 -.769603485646D-08
    -.717887045734D-10  .100000000000D+01  .181800000000D+04  .000000000000D+00
     .240000000000D+01  .000000000000D+00 -.111758708954D-07  .560000000000D+02
     .122406000000D+06  .400000000000D+01
29 14 11 10 12  0  0.0  .572311691940D-03  .238742359215D-11  .000000000000D+00
     .890000000000D+02 -.610312500000D+02  .421874715632D-08 -.634040565672D+00
    -.304915010929D-05  .113096553832D-02  .103060156107D-04  .515360963249D+04
     .129600000000D+06  .353902578354D-07  .581437583506D+00 -.167638063431D-07
     .971269587151D+00  .187812500000D+03 -.836585241282D+00 -.780246786125D-08
     .255010622216D-09  .100000000000D+01  .181800000000D+04  .000000000000D+00
     .240000000000D+01  .000000000000D+00 -.977888703346D-08  .890000000000D+02
     .122406000000D+06  .400000000000D+01
30 14 11 10 12  0  0.0 -.792955979705D-04 -.250111042988D-11  .000000000000D+00
     .790000000000D+02  .781875000000D+02  .468698094586D-08 -.846082182148D-01
     .409223139286D-05  .103298679460D-02  .264681875706D-05  .515364383507D+04
     .129600000000D+06  .447034835815D-07 -.148885528034D+01 -.223517417908D-07
     .957506601616D+00  .326406250000D+03 -.306553223207D+01 -.844320883640D-08
     .272154193457D-09  .100000000000D+01  .181800000000D+04  .000000000000D+00
     .240000000000D+01  .000000000000D+00  .325962901115D-08  .790000000000D+02
     .122406000000D+06  .400000000000D+01
31 14 11 10 12  0  0.0  .329270958900D-03 -.568434188608D-12  .000000000000D+00
     .170000000000D+02  .644375000000D+02  .425517724521D-08  .976492200305D-01
     .337325036526D-05  .819301500451D-02  .360794365406D-05  .515366587257D+04
     .129600000000D+06  .111758708954D-07 -.153411956615D+01 -.100582838058D-06
     .976756277500D+00  .314687500000D+03 -.620626357362D+00 -.827605901679D-08
     .232866842696D-09  .100000000000D+01  .181800000000D+04  .000000000000D+00
     .240000000000D+01  .000000000000D+00 -.135041773319D-07  .170000000000D+02
     .122406000000D+06  .400000000000D+01
32 14 11 10 12  0  0.0 -.297253951430D-03  .886757334229D-11  .000000000000D+00
     .250000000000D+02 -.141875000000D+02  .503770984084D-08  .602333497196D+00
    -.791624188423D-06  .114174968330D-01  .710226595402D-05  .515361685562D+04
     .129600000000D+06  .208616256714D-06  .270685588942D+01  .104308128357D-06
     .947535610924D+00  .233750000000D+03 -.396531640334D-01 -.829677416538D-08
    -.503949562951D-09  .100000000000D+01  .181800000000D+04  .000000000000D+00
     .240000000000D+01  .000000000000D+00 -.325962901115D-08  .250000000000D+02
     .122406000000D+06  .400000000000D+01
17 14 11 10 11 59 44.0 -.136619899422D-03 -.250111042988D-11  .000000000000D+00
     .150000000000D+02 -.729062500000D+02  .405088302125D-08  .294360415734D+01
    -.372529029846D-05  .967004755512D-02  .113788992167D-04  .515367734718D+04
     .129584000000D+06  .298023223877D-07  .572242858109D+00 -.143423676491D-06
     .970492002305D+00  .161375000000D+03 -.208593405333D+01 -.755067165864D-08
     .206794328100D-09  .100000000000D+01  .181800000000D+04  .000000000000D+00
     .240000000000D+01  .000000000000D+00 -.107102096081D-07  .150000000000D+02
     .123846000000D+06  .400000000000D+01
17 14 11 10 13 59 44.0 -.136638060212D-03 -.250111042988D-11  .000000000000D+00
     .160000000000D+02 -.657500000000D+02  .410445668138D-08 -.228951762607D+01
    -.338815152645D-05  .967093557119D-02  .107809901237D-04  .515367512703D+04
     .136784000000D+06  .121071934700D-06  .572187738282D+00 -.260770320892D-07
     .970493842655D+00  .173437500000D+03 -.208582201282D+01 -.758103006605D-08
     .322156276245D-09  .100000000000D+01  .181800000000D+04  .000000000000D+00
     .240000000000D+01  .000000000000D+00 -.107102096081D-07  .160000000000D+02
     .129606000000D+06  .400000000000D+01
 1 14 11 10 14  0  0.0 -.122785568237D-04  .454747350886D-12  .000000000000D+00
     .170000000000D+02  .192187500000D+02  .485448792319D-08  .169598907291D+01
     .107474625111D-05  .365838862490D-02  .723451375961D-05  .515366872787D+04
     .136800000000D+06 -.689178705215D-07  .158175468332D+01  .108033418655D-06
     .960975630961D+00  .239875000000D+03  .447706669626D+00 -.813748181592D-08
     .323227749447D-09  .100000000000D+01  .181800000000D+04  .000000000000D+00
     .240000000000D+01  .000000000000D+00  .558793544769D-08  .170000000000D+02
     .129606000000D+06  .400000000000D+01
 2 14 11 10 14  0  0.0  .529284123331D-03  .216004991671D-11  .000000000000D+00
     .310000000000D+02  .166562500000D+02  .520164524083D-08  .242150692281D+01
     .666826963425D-06  .138915557181D-01  .744499266148D-05  .515370413017D+04
     .136800000000D+06 -.104308128357D-06  .154848252657D+01 -.232830643654D-06
     .939555947248D+00  .224218750000D+03 -.237151864192D+01 -.812783855710D-08
     .410017078857D-09  .100000000000D+01  .181800000000D+04  .000000000000D+00
     .240000000000D+01  .000000000000D+00 -.204890966415D-07  .310000000000D+02
     .129606000000D+06  .400000000000D+01
